start=new Date('2022-06-23T00:00:00.000Z').valueOf();
sats=[{"OBJECT_ID":"2020-035BA","DECAY_DATE":null,"SEMIMAJOR_AXIS":"6925.372","REV_AT_EPOCH":"11437","SITE":"AFETR","OBJECT_TYPE":"PAYLOAD","NORAD_CAT_ID":"45705","MEAN_MOTION_DDOT":"0.0000000000000","TIME_SYSTEM":"UTC","EPHEMERIS_TYPE":"0","GP_ID":"206646102","TLE_LINE2":"2 45705  53.0551  32.9622 0001541  69.5928 290.5226 15.06392449114371","TLE_LINE1":"1 45705U 20035BA  22173.90589776 -.00000098  00000-0  12291-4 0  9994","PERIAPSIS":"546.170","COUNTRY_CODE":"US","EPOCH":"2022-06-22T21:44:29.566464","MEAN_ELEMENT_THEORY":"SGP4","MEAN_MOTION_DOT":"-0.00000098","APOAPSIS":"548.304","REF_FRAME":"TEME","ELEMENT_SET_NO":"999","MEAN_ANOMALY":"290.5226","RA_OF_ASC_NODE":"32.9622","BSTAR":"0.00001229100000","CENTER_NAME":"EARTH","MEAN_MOTION":"15.06392449","RCS_SIZE":"LARGE","OBJECT_NAME":"STARLINK-1410","ARG_OF_PERICENTER":"69.5928","LAUNCH_DATE":"2020-06-04","CLASSIFICATION_TYPE":"U","FILE":"3500001","ECCENTRICITY":"0.00015410","PERIOD":"95.593","INCLINATION":"53.0551"},{"EPOCH":"2022-06-22T19:57:00.088128","PERIAPSIS":"546.242","COUNTRY_CODE":"US","MEAN_ELEMENT_THEORY":"SGP4","MEAN_MOTION_DOT":"-0.00000283","APOAPSIS":"548.190","MEAN_ANOMALY":"294.3310","REF_FRAME":"TEME","ELEMENT_SET_NO":"999","BSTAR":"-0.00000012988000","RA_OF_ASC_NODE":"3.2954","MEAN_MOTION":"15.06399167","CENTER_NAME":"EARTH","RCS_SIZE":"LARGE","OBJECT_NAME":"STARLINK-1411","ARG_OF_PERICENTER":"65.7826","LAUNCH_DATE":"2020-06-04","CLASSIFICATION_TYPE":"U","FILE":"3499853","ECCENTRICITY":"0.00014060","INCLINATION":"53.0553","PERIOD":"95.592","OBJECT_ID":"2020-035BB","SEMIMAJOR_AXIS":"6925.351","DECAY_DATE":null,"REV_AT_EPOCH":"11438","SITE":"AFETR","OBJECT_TYPE":"PAYLOAD","NORAD_CAT_ID":"45706","MEAN_MOTION_DDOT":"0.0000000000000","TIME_SYSTEM":"UTC","GP_ID":"206623438","EPHEMERIS_TYPE":"0","TLE_LINE2":"2 45706  53.0553   3.2954 0001406  65.7826 294.3310 15.06399167114389","TLE_LINE1":"1 45706U 20035BB  22173.83125102 -.00000283  00000-0 -12988-6 0  9998"},{"APOAPSIS":"548.215","MEAN_MOTION_DOT":"-0.00001779","MEAN_ELEMENT_THEORY":"SGP4","COUNTRY_CODE":"US","PERIAPSIS":"546.321","EPOCH":"2022-06-22T21:27:15.038784","BSTAR":"-0.00010064000000","RA_OF_ASC_NODE":"3.0282","REF_FRAME":"TEME","ELEMENT_SET_NO":"999","MEAN_ANOMALY":"282.7967","LAUNCH_DATE":"2020-06-04","ARG_OF_PERICENTER":"77.3175","RCS_SIZE":"LARGE","OBJECT_NAME":"STARLINK-1412","MEAN_MOTION":"15.06382249","CENTER_NAME":"EARTH","PERIOD":"95.593","INCLINATION":"53.0564","ECCENTRICITY":"0.00013680","CLASSIFICATION_TYPE":"U","FILE":"3500001","REV_AT_EPOCH":"11480","DECAY_DATE":null,"SEMIMAJOR_AXIS":"6925.403","OBJECT_ID":"2020-035BC","SITE":"AFETR","MEAN_MOTION_DDOT":"0.0000000000000","NORAD_CAT_ID":"45707","OBJECT_TYPE":"PAYLOAD","TLE_LINE1":"1 45707U 20035BC  22173.89392406 -.00001779  00000-0 -10064-3 0  9999","TLE_LINE2":"2 45707  53.0564   3.0282 0001368  77.3175 282.7967 15.06382249114806","GP_ID":"206647104","EPHEMERIS_TYPE":"0","TIME_SYSTEM":"UTC"},{"MEAN_MOTION_DDOT":"0.0000000000000","OBJECT_TYPE":"PAYLOAD","NORAD_CAT_ID":"45708","TLE_LINE2":"2 45708  53.0551   3.1257 0001504  76.9610 283.1547 15.06403091114805","TLE_LINE1":"1 45708U 20035BD  22173.86811572  .00001457  00000-0  11665-3 0  9996","TIME_SYSTEM":"UTC","GP_ID":"206645352","EPHEMERIS_TYPE":"0","REV_AT_EPOCH":"11480","OBJECT_ID":"2020-035BD","SEMIMAJOR_AXIS":"6925.339","DECAY_DATE":null,"SITE":"AFETR","ARG_OF_PERICENTER":"76.9610","LAUNCH_DATE":"2020-06-04","MEAN_MOTION":"15.06403091","CENTER_NAME":"EARTH","RCS_SIZE":"LARGE","OBJECT_NAME":"STARLINK-1418","INCLINATION":"53.0551","PERIOD":"95.592","CLASSIFICATION_TYPE":"U","FILE":"3500001","ECCENTRICITY":"0.00015040","MEAN_MOTION_DOT":"0.00001457","APOAPSIS":"548.246","EPOCH":"2022-06-22T20:50:05.198208","COUNTRY_CODE":"US","PERIAPSIS":"546.163","MEAN_ELEMENT_THEORY":"SGP4","MEAN_ANOMALY":"283.1547","REF_FRAME":"TEME","ELEMENT_SET_NO":"999","RA_OF_ASC_NODE":"3.1257","BSTAR":"0.00011665000000"},{"TLE_LINE2":"2 45709  53.0568   3.5831 0001512  70.0150 290.1002 15.06390397114740","TLE_LINE1":"1 45709U 20035BE  22173.77228538  .00000134  00000-0  27871-4 0  9999","TIME_SYSTEM":"UTC","GP_ID":"206645602","EPHEMERIS_TYPE":"0","MEAN_MOTION_DDOT":"0.0000000000000","OBJECT_TYPE":"PAYLOAD","NORAD_CAT_ID":"45709","SITE":"AFETR","REV_AT_EPOCH":"11474","OBJECT_ID":"2020-035BE","SEMIMAJOR_AXIS":"6925.378","DECAY_DATE":null,"PERIOD":"95.593","INCLINATION":"53.0568","FILE":"3500001","CLASSIFICATION_TYPE":"U","ECCENTRICITY":"0.00015120","ARG_OF_PERICENTER":"70.0150","LAUNCH_DATE":"2020-06-04","CENTER_NAME":"EARTH","MEAN_MOTION":"15.06390397","RCS_SIZE":"LARGE","OBJECT_NAME":"STARLINK-1421","REF_FRAME":"TEME","ELEMENT_SET_NO":"999","MEAN_ANOMALY":"290.1002","RA_OF_ASC_NODE":"3.5831","BSTAR":"0.00002787100000","MEAN_MOTION_DOT":"0.00000134","APOAPSIS":"548.290","COUNTRY_CODE":"US","PERIAPSIS":"546.196","EPOCH":"2022-06-22T18:32:05.456832","MEAN_ELEMENT_THEORY":"SGP4"},{"NORAD_CAT_ID":"45710","OBJECT_TYPE":"PAYLOAD","MEAN_MOTION_DDOT":"0.0000000000000","GP_ID":"206646854","EPHEMERIS_TYPE":"0","TIME_SYSTEM":"UTC","TLE_LINE1":"1 45710U 20035BF  22173.76859181  .00001786  00000-0  13879-3 0  9990","TLE_LINE2":"2 45710  53.0565   3.5919 0001575  66.4175 293.6979 15.06397885114785","SEMIMAJOR_AXIS":"6925.355","DECAY_DATE":null,"OBJECT_ID":"2020-035BF","REV_AT_EPOCH":"11478","SITE":"AFETR","RCS_SIZE":"LARGE","OBJECT_NAME":"STARLINK-1423","MEAN_MOTION":"15.06397885","CENTER_NAME":"EARTH","LAUNCH_DATE":"2020-06-04","ARG_OF_PERICENTER":"66.4175","ECCENTRICITY":"0.00015750","FILE":"3500001","CLASSIFICATION_TYPE":"U","INCLINATION":"53.0565","PERIOD":"95.592","MEAN_ELEMENT_THEORY":"SGP4","EPOCH":"2022-06-22T18:26:46.332384","PERIAPSIS":"546.129","COUNTRY_CODE":"US","APOAPSIS":"548.311","MEAN_MOTION_DOT":"0.00001786","RA_OF_ASC_NODE":"3.5919","BSTAR":"0.00013879000000","MEAN_ANOMALY":"293.6979","REF_FRAME":"TEME","ELEMENT_SET_NO":"999"},{"NORAD_CAT_ID":"45711","OBJECT_TYPE":"PAYLOAD","MEAN_MOTION_DDOT":"0.0000000000000","EPHEMERIS_TYPE":"0","GP_ID":"206646604","TIME_SYSTEM":"UTC","TLE_LINE1":"1 45711U 20035BG  22173.81651705  .00000090  00000-0  24929-4 0  9995","TLE_LINE2":"2 45711  53.0555   3.3680 0001501  63.5135 296.6007 15.06388026114783","DECAY_DATE":null,"SEMIMAJOR_AXIS":"6925.385","OBJECT_ID":"2020-035BG","REV_AT_EPOCH":"11478","SITE":"AFETR","RCS_SIZE":"LARGE","OBJECT_NAME":"STARLINK-1433","CENTER_NAME":"EARTH","MEAN_MOTION":"15.06388026","LAUNCH_DATE":"2020-06-04","ARG_OF_PERICENTER":"63.5135","ECCENTRICITY":"0.00015010","FILE":"3500001","CLASSIFICATION_TYPE":"U","INCLINATION":"53.0555","PERIOD":"95.593","MEAN_ELEMENT_THEORY":"SGP4","EPOCH":"2022-06-22T19:35:47.073120","COUNTRY_CODE":"US","PERIAPSIS":"546.211","APOAPSIS":"548.290","MEAN_MOTION_DOT":"0.00000090","BSTAR":"0.00002492900000","RA_OF_ASC_NODE":"3.3680","MEAN_ANOMALY":"296.6007","ELEMENT_SET_NO":"999","REF_FRAME":"TEME"},{"MEAN_MOTION_DDOT":"0.0000000000000","OBJECT_TYPE":"PAYLOAD","NORAD_CAT_ID":"45712","TLE_LINE2":"2 45712  53.0553   3.3981 0001318  70.3102 289.8029 15.06400277114794","TLE_LINE1":"1 45712U 20035BH  22173.81282482  .00000023  00000-0  20461-4 0  9991","TIME_SYSTEM":"UTC","EPHEMERIS_TYPE":"0","GP_ID":"206645853","REV_AT_EPOCH":"11479","OBJECT_ID":"2020-035BH","SEMIMAJOR_AXIS":"6925.348","DECAY_DATE":null,"SITE":"AFETR","ARG_OF_PERICENTER":"70.3102","LAUNCH_DATE":"2020-06-04","CENTER_NAME":"EARTH","MEAN_MOTION":"15.06400277","RCS_SIZE":"LARGE","OBJECT_NAME":"STARLINK-1434","INCLINATION":"53.0553","PERIOD":"95.592","CLASSIFICATION_TYPE":"U","FILE":"3500001","ECCENTRICITY":"0.00013180","MEAN_MOTION_DOT":"0.00000023","APOAPSIS":"548.125","EPOCH":"2022-06-22T19:30:28.064448","COUNTRY_CODE":"US","PERIAPSIS":"546.300","MEAN_ELEMENT_THEORY":"SGP4","MEAN_ANOMALY":"289.8029","REF_FRAME":"TEME","ELEMENT_SET_NO":"999","RA_OF_ASC_NODE":"3.3981","BSTAR":"0.00002046100000"},{"MEAN_ANOMALY":"293.9797","REF_FRAME":"TEME","ELEMENT_SET_NO":"999","BSTAR":"0.00003576100000","RA_OF_ASC_NODE":"22.9878","EPOCH":"2022-06-22T21:35:12.524928","COUNTRY_CODE":"US","PERIAPSIS":"546.129","MEAN_ELEMENT_THEORY":"SGP4","MEAN_MOTION_DOT":"0.00000251","APOAPSIS":"548.361","CLASSIFICATION_TYPE":"U","FILE":"3500001","ECCENTRICITY":"0.00016120","INCLINATION":"53.0560","PERIOD":"95.593","CENTER_NAME":"EARTH","MEAN_MOTION":"15.06389728","RCS_SIZE":"LARGE","OBJECT_NAME":"STARLINK-1436","ARG_OF_PERICENTER":"66.1361","LAUNCH_DATE":"2020-06-04","SITE":"AFETR","OBJECT_ID":"2020-035BJ","SEMIMAJOR_AXIS":"6925.380","DECAY_DATE":null,"REV_AT_EPOCH":"11451","TIME_SYSTEM":"UTC","GP_ID":"206646103","EPHEMERIS_TYPE":"0","TLE_LINE2":"2 45713  53.0560  22.9878 0001612  66.1361 293.9797 15.06389728114517","TLE_LINE1":"1 45713U 20035BJ  22173.89945052  .00000251  00000-0  35761-4 0  9991","OBJECT_TYPE":"PAYLOAD","NORAD_CAT_ID":"45713","MEAN_MOTION_DDOT":"0.0000000000000"},{"COUNTRY_CODE":"US","PERIAPSIS":"546.180","EPOCH":"2022-06-22T19:46:23.858400","MEAN_ELEMENT_THEORY":"SGP4","MEAN_MOTION_DOT":"-0.00002066","APOAPSIS":"548.339","ELEMENT_SET_NO":"999","REF_FRAME":"TEME","MEAN_ANOMALY":"304.0423","RA_OF_ASC_NODE":"3.3378","BSTAR":"-0.00011992000000","MEAN_MOTION":"15.06384913","CENTER_NAME":"EARTH","RCS_SIZE":"LARGE","OBJECT_NAME":"STARLINK-1437","ARG_OF_PERICENTER":"56.0714","LAUNCH_DATE":"2020-06-04","FILE":"3500001","CLASSIFICATION_TYPE":"U","ECCENTRICITY":"0.00015590","PERIOD":"95.593","INCLINATION":"53.0548","OBJECT_ID":"2020-035BK","SEMIMAJOR_AXIS":"6925.395","DECAY_DATE":null,"REV_AT_EPOCH":"11479","SITE":"AFETR","OBJECT_TYPE":"PAYLOAD","NORAD_CAT_ID":"45714","MEAN_MOTION_DDOT":"0.0000000000000","TIME_SYSTEM":"UTC","EPHEMERIS_TYPE":"0","GP_ID":"206646354","TLE_LINE2":"2 45714  53.0548   3.3378 0001559  56.0714 304.0423 15.06384913114793","TLE_LINE1":"1 45714U 20035BK  22173.82388725 -.00002066  00000-0 -11992-3 0  9990"}];
